0 PEGASUS DEB
1 39323U 94029AFJ 13288.16686643  .00001418  00000-0  28924-3 0    12
2 39323 081.9933 093.0798 0247872 295.6067 062.0271 14.42881163544184
0 PEGASUS DEB
1 39323U 94029AFJ 13293.71449878  .00002069  00000-0  41948-3 0    21
2 39323 081.9939 087.8550 0250744 278.6072 078.9256 14.42910508544989
